{
  "norad_id": 48312,
  "name": "STARLINK-2061",
  "history": [
    {
      "epoch": "2026-03-28T21:27:04.161888Z",
      "apogee_km": 475.8811680982217,
      "perigee_km": 474.4296407669617,
      "latitude_deg": 7.78239724604128e-06,
      "longitude_deg": -148.8715390024292,
      "height_km": 476.09752332574703,
      "semi_major_axis_km": 6853.292404432591,
      "eccentricity": 0.0001059,
      "inclination_deg": 53.1622,
      "raan_deg": 359.2035,
      "arg_perigee_deg": 93.4372,
      "mean_anomaly_deg": 266.675,
      "mean_motion_rev_day": 15.30219983
    },
    {
      "epoch": "2026-03-29T03:43:16.763232Z",
      "apogee_km": 475.949815001939,
      "perigee_km": 474.3255888975773,
      "latitude_deg": 8.344529942620225e-06,
      "longitude_deg": 115.6056492435988,
      "height_km": 476.1635823302086,
      "semi_major_axis_km": 6853.274701949758,
      "eccentricity": 0.0001185,
      "inclination_deg": 53.1618,
      "raan_deg": 357.9907,
      "arg_perigee_deg": 99.0305,
      "mean_anomaly_deg": 261.083,
      "mean_motion_rev_day": 15.30225912
    },
    {
      "epoch": "2026-03-30T03:14:05.666784Z",
      "apogee_km": 476.06498359328543,
      "perigee_km": 474.37357526352116,
      "latitude_deg": 4.9860791537491325e-06,
      "longitude_deg": 117.38601393215819,
      "height_km": 476.0083174167836,
      "semi_major_axis_km": 6853.356279428403,
      "eccentricity": 0.0001234,
      "inclination_deg": 53.1621,
      "raan_deg": 353.4405,
      "arg_perigee_deg": 82.5724,
      "mean_anomaly_deg": 277.5417,
      "mean_motion_rev_day": 15.3019859
    },
    {
      "epoch": "2026-03-30T23:36:46.805184Z",
      "apogee_km": 476.07730938819714,
      "perigee_km": 474.29133385178284,
      "latitude_deg": -2.9622702792429055e-05,
      "longitude_deg": 166.9348805486469,
      "height_km": 475.8008498386231,
      "semi_major_axis_km": 6853.32132161999,
      "eccentricity": 0.0001303,
      "inclination_deg": 53.1632,
      "raan_deg": 349.4977,
      "arg_perigee_deg": 71.5946,
      "mean_anomaly_deg": 288.5196,
      "mean_motion_rev_day": 15.30210298
    },
    {
      "epoch": "2026-03-31T10:35:09.372480Z",
      "apogee_km": 476.1785206417817,
      "perigee_km": 474.301654792539,
      "latitude_deg": -5.296224702822822e-05,
      "longitude_deg": -0.23470904318880811,
      "height_km": 476.1306920822219,
      "semi_major_axis_km": 6853.37708771716,
      "eccentricity": 0.00013693,
      "inclination_deg": 53.1629,
      "raan_deg": 347.3728,
      "arg_perigee_deg": 89.5329,
      "mean_anomaly_deg": 270.5828,
      "mean_motion_rev_day": 15.30191621
    }
  ]
}